[{"OBJECT_NAME":"STARLINK-36120","OBJECT_ID":"2025-293P","EPOCH":"2026-03-09T19:10:56.604000","MEAN_MOTION":14.98335584,"ECCENTRICITY":0.00034813,"INCLINATION":70.0009,"RA_OF_ASC_NODE":94.2038,"ARG_OF_PERICENTER":267.624,"MEAN_ANOMALY":92.4521,"EPHEMERIS_TYPE":0,"CLASSIFICATION_TYPE":"U","NORAD_CAT_ID":67016,"ELEMENT_SET_NO":999,"REV_AT_EPOCH":1490,"BSTAR":0.00033786536,"MEAN_MOTION_DOT":3.941e-5,"MEAN_MOTION_DDOT":0},{"OBJECT_NAME":"CZ-6A DEB","OBJECT_ID":"2024-140ACJ","EPOCH":"2026-03-09T13:34:40.812960","MEAN_MOTION":14.75825013,"ECCENTRICITY":0.00997158,"INCLINATION":89.1651,"RA_OF_ASC_NODE":293.465,"ARG_OF_PERICENTER":131.8399,"MEAN_ANOMALY":229.139,"EPHEMERIS_TYPE":0,"CLASSIFICATION_TYPE":"U","NORAD_CAT_ID":61818,"ELEMENT_SET_NO":999,"REV_AT_EPOCH":7745,"BSTAR":0.0027745795,"MEAN_MOTION_DOT":0.00020689,"MEAN_MOTION_DDOT":0}]
